[{"OBJECT_NAME":"STARLINK-5462","OBJECT_ID":"2023-021AY","EPOCH":"2026-03-09T22:00:01.999584","MEAN_MOTION":14.98350999,"ECCENTRICITY":0.00033559,"INCLINATION":70.0011,"RA_OF_ASC_NODE":163.7425,"ARG_OF_PERICENTER":270.6716,"MEAN_ANOMALY":32.0399,"EPHEMERIS_TYPE":0,"CLASSIFICATION_TYPE":"U","NORAD_CAT_ID":55674,"ELEMENT_SET_NO":999,"REV_AT_EPOCH":575,"BSTAR":-0.00372699,"MEAN_MOTION_DOT":-0.00044308,"MEAN_MOTION_DDOT":0},{"OBJECT_NAME":"FENGYUN 1C DEB","OBJECT_ID":"1999-025BLC","EPOCH":"2026-03-08T16:01:16.538592","MEAN_MOTION":14.99951534,"ECCENTRICITY":0.01625238,"INCLINATION":98.6028,"RA_OF_ASC_NODE":151.5668,"ARG_OF_PERICENTER":148.1189,"MEAN_ANOMALY":212.9995,"EPHEMERIS_TYPE":0,"CLASSIFICATION_TYPE":"U","NORAD_CAT_ID":31222,"ELEMENT_SET_NO":999,"REV_AT_EPOCH":1270,"BSTAR":0.0010673359,"MEAN_MOTION_DOT":0.00017492,"MEAN_MOTION_DDOT":0}]
